TEVEL2-1                
1 63217U 25052H   26148.14650673  .00021548  00000+0  67510-3 0  9997
2 63217  97.3910  44.0997 0003092 151.1122 209.0292 15.33100932 67026
TEVEL2-3                
1 63218U 25052J   26148.20710868  .00022357  00000+0  69909-3 0  9991
2 63218  97.3912  44.1796 0003139 152.6394 207.5015 15.33155082 67039
TEVEL2-2                
1 63219U 25052K   26148.21219309  .00021711  00000+0  67994-3 0  9992
2 63219  97.3908  44.1671 0003091 151.8832 208.2578 15.33110714 67037
TEVEL2-9                
1 63237U 25052AD  26148.22953981  .00019963  00000+0  66375-3 0  9992
2 63237  97.3971  43.6022 0005353 192.8318 167.2788 15.31198165 66971
TEVEL2-7                
1 63238U 25052AE  26148.26672926  .00020059  00000+0  67262-3 0  9998
2 63238  97.3974  43.5634 0005487 193.8937 166.2154 15.30921942 66971
TEVEL2-8                
1 63239U 25052AF  26148.20940384  .00019919  00000+0  66836-3 0  9998
2 63239  97.3975  43.4840 0005480 194.4626 165.6460 15.30902394 66968
INNOSAT 16 (RS92S7)     
1 64878U 25155C   26148.25611420  .00007663  00000+0  30773-3 0  9997
2 64878  97.4548 115.4525 0008584 253.1307 106.8990 15.25210932 77637
GEOSCAN 6 (RS92S6)      
1 64879U 25155D   26148.23347185  .00012096  00000+0  42235-3 0  9992
2 64879  97.4540 116.7158 0005824 239.4587 120.6079 15.29720776 77714
GEOSCAN 1 (RS92S1)      
1 64880U 25155E   26148.24347379  .00013168  00000+0  45168-3 0  9999
2 64880  97.4536 116.8569 0005729 239.3660 120.7016 15.30280328 77722
239ALFEROV (RS61S)      
1 64881U 25155F   26148.24075703  .00017713  00000+0  56907-3 0  9992
2 64881  97.4538 117.3506 0005192 235.7036 124.3715 15.32330245 77758
GEOSCAN 2 (RS92S2)      
1 64890U 25155Q   26148.24070143  .00013010  00000+0  44257-3 0  9996
2 64890  97.4536 116.9987 0005420 220.6718 139.4118 15.30554918 77733
GEOSCAN 5 (RS92S5)      
1 64891U 25155R   26148.23391241  .00016806  00000+0  53489-3 0  9994
2 64891  97.4530 117.4735 0003975 242.1238 117.9601 15.32647323 77760
GEOSCAN 4 (RS92S4)      
1 64892U 25155S   26148.28531431  .00017943  00000+0  56828-3 0  9990
2 64892  97.4534 117.5683 0003964 242.4531 117.6309 15.32790670 77772
GEOSCAN 3 (RS92S3)      
1 64893U 25155T   26148.24572283  .00021929  00000+0  65458-3 0  9995
2 64893  97.4524 117.9024 0003742 239.4024 120.6850 15.34633970 77790
INNOSAT 3 (RS92S0)      
1 64894U 25155U   26148.27495788  .00043874  00000+0  10181-2 0  9998
2 64894  97.4477 119.3177 0002396 218.1592 141.9486 15.42255670 77899
KNACKSAT-2              
1 67683U 98067XZ  26148.22339014  .00052724  00000+0  69037-3 0  9992
2 67683  51.6305  34.7539 0011623 129.2916 230.9109 15.57990994 17163
